ONEWEB-0020             
1 45133U 20008C   24051.47744202  .00000471  00000+0  13115-2 0  9992
2 45133  87.8940 204.6567 0001370  98.2520 261.8763 13.10378140197324
ONEWEB-0021             
1 45134U 20008D   24051.49206496  .00000666  00000+0  18707-2 0  9991
2 45134  87.8939 204.6635 0001580  98.7876 261.3430 13.10372140197635
ONEWEB-0022             
1 45135U 20008E   24051.51518739 -.00000273  00000+0 -81890-3 0  9991
2 45135  87.8938 204.6771 0001252  94.6274 265.4997 13.10395396197337
ONEWEB-0023             
1 45136U 20008F   24051.50505205  .00000214  00000+0  57776-3 0  9994
2 45136  87.8937 204.6527 0001685 116.0853 244.0448 13.10369960197060
ONEWEB-0025             
1 45138U 20008H   24051.64639138  .00000655  00000+0  18411-2 0  9995
2 45138  87.8928 204.6238 0001817 101.9489 258.1842 13.10371939197575
ONEWEB-0028             
1 45140U 20008K   24051.60851046  .00000456  00000+0  12498-2 0  9996
2 45140  87.9010 189.5901 0002297 106.5209 253.6171 13.11416290197535
